LANDSAT 9               
1 49260U 21088A   24154.20081855  .00000557  00000+0  13351-3 0  9997
2 49260  98.1874 224.0731 0001020  90.0414 270.0902 14.57112085142506
